IRIDIUM 159             
1 43578U 18061K   25189.45674214  .00000034  00000+0  50485-5 0  9994
2 43578  86.3979 200.3173 0002407  95.3344 264.8127 14.34217745364111
IRIDIUM 180             
1 43922U 19002A   25189.59577536  .00000009  00000+0 -37358-5 0  9994
2 43922  86.3998 137.2417 0002270  83.9651 276.1803 14.34217536339742
IRIDIUM 176             
1 43923U 19002B   25189.31035648  .00000664  00000+0  10139-3 0  9990
2 43923  86.6121 137.3520 0002869  73.9976 286.1557 14.72257926348659
IRIDIUM 168             
1 43924U 19002C   25189.58943153  .00000194  00000+0  62133-4 0  9999
2 43924  86.3999 137.3120 0002312  84.7223 275.4236 14.34218633339727
IRIDIUM 173             
1 43925U 19002D   25189.85582176 -.00000012  00000+0 -11417-4 0  9994
2 43925  86.3997 137.1039 0002311  81.0817 279.0640 14.34217322339757
IRIDIUM 169             
1 43926U 19002E   25189.85538922  .00000245  00000+0  73710-4 0  9995
2 43926  86.4258 168.6875 0002899  57.1603 302.9874 14.38612810340868
IRIDIUM 172             
1 43927U 19002F   25189.36109947  .00000016  00000+0 -14672-5 0  9993
2 43927  86.3997 137.3171 0002407  87.6628 272.4843 14.34217653339687
IRIDIUM 175             
1 43928U 19002G   25189.44129787  .00000686  00000+0  10491-3 0  9992
2 43928  86.1493  88.6026 0001615  70.0061 290.1329 14.72242568348660
